NORAD_CAT_ID,OBJECT_NAME,OBJECT_TYPE,EPOCH,MEAN_MOTION,ECCENTRICITY,INCLINATION,RA_OF_ASC_NODE,ARG_OF_PERICENTER,MEAN_ANOMALY,BSTAR,MEAN_MOTION_DOT,MEAN_MOTION_DDOT,TLE_LINE0,TLE_LINE1,TLE_LINE2,SEMIMAJOR_AXIS,PERIOD,APOGEE,PERIGEE,DECAYED
52347.0,STARLINK-3826,PAYLOAD,2022-06-05 22:00:00,15.73216662,0.0002208,53.2144,253.0131,21.8985,256.2014,-1.0253e-05,-2.061e-05,0.0,0 STARLINK-3826,1 52347U 22045S   22156.91667824 -.00002061  00000-0 -10253-4 0  9999,2 52347  53.2144 253.0131 0002208  21.8985 256.2014 15.73216662  8379,6727.848000000001,91.532,351.1980000000001,348.227,0.0
52347.0,STARLINK-3826,PAYLOAD,2022-06-06 14:00:01,15.73209355,0.0002365,53.2141,249.715,21.5019,74.4884,-0.00072422,-0.00101105,0.0,0 STARLINK-3826,1 52347U 22045S   22157.58334491 -.00101105  00000-0 -72422-3 0  9998,2 52347  53.2141 249.7150 0002365  21.5019  74.4884 15.73209355  8486,6727.869000000002,91.533,351.325,348.142,0.0
52347.0,STARLINK-3826,PAYLOAD,2022-06-06 22:00:00,15.73148088,0.0002344,53.2137,248.0644,24.5554,160.3506,-4.8187e-05,-7.364e-05,0.0,0 STARLINK-3826,1 52347U 22045S   22157.91667824 -.00007364  00000-0 -48187-4 0  9998,2 52347  53.2137 248.0644 0002344  24.5554 160.3506 15.73148088  8532,6728.043000000002,91.536,351.485,348.331,0.0
52347.0,STARLINK-3826,PAYLOAD,2022-06-07 14:00:01,15.7317364,0.0002515,53.2143,244.7665,25.7515,336.9118,0.00029787,0.00041346,0.0,0 STARLINK-3826,1 52347U 22045S   22158.58334491  .00041346  00000-0  29787-3 0  9993,2 52347  53.2143 244.7665 0002515  25.7515 336.9118 15.73173640  8649,6727.97,91.535,351.527,348.14300000000014,0.0
52347.0,STARLINK-3826,PAYLOAD,2022-06-07 22:00:00,15.73243927,0.0002465,53.2142,243.1157,23.9092,67.6928,0.00013427,0.000183,0.0,0 STARLINK-3826,1 52347U 22045S   22158.91667824  .00018300  00000-0  13427-3 0  9997,2 52347  53.2142 243.1157 0002465  23.9092  67.6928 15.73243927  8699,6727.77,91.531,351.293,347.977,0.0
52347.0,STARLINK-3826,PAYLOAD,2022-06-08 14:00:01,15.73406451,0.0002444,53.216,239.8152,22.0468,247.5055,-0.0061322,-0.00791814,0.0,0 STARLINK-3826,1 52347U 22045S   22159.58334491 -.00791814  00000-0 -61322-2 0  9998,2 52347  53.2160 239.8152 0002444  22.0468 247.5055 15.73406451  8794,6727.307,91.521,350.816,347.527,0.0
52347.0,STARLINK-3826,PAYLOAD,2022-06-08 22:00:01,15.73059004,0.0002358,53.2168,238.1618,13.3808,344.9853,-0.0040305,-0.0052904,0.0,0 STARLINK-3826,1 52347U 22045S   22159.91668981 -.00529040  00000-0 -40305-2 0  9997,2 52347  53.2168 238.1618 0002358  13.3808 344.9853 15.73059004  8848,6728.297,91.541,351.749,348.576,0.0
52347.0,STARLINK-3826,PAYLOAD,2022-06-09 06:00:00,15.72678891,0.000246,53.2174,236.5099,16.3599,70.4871,-0.0056733,-0.00716413,0.0,0 STARLINK-3826,1 52347U 22045S   22160.25001157 -.00716413  00000-0 -56733-2 0  9996,2 52347  53.2174 236.5099 0002460  16.3599  70.4871 15.72678891  8902,6729.380999999999,91.564,352.902,349.591,0.0
52347.0,STARLINK-3826,PAYLOAD,2022-06-09 14:00:01,15.72168891,0.0002453,53.2175,234.8622,20.9346,153.9043,-0.0057979,-0.00716329,0.0,0 STARLINK-3826,1 52347U 22045S   22160.58334491 -.00716329  00000-0 -57979-2 0  9991,2 52347  53.2175 234.8622 0002453  20.9346 153.9043 15.72168891  1308,6730.837,91.593,354.353,351.05,0.0
52347.0,STARLINK-3826,PAYLOAD,2022-06-09 22:00:00,15.71662083,0.0002119,53.2175,233.2122,18.9146,243.3044,-0.0059758,-0.00721941,0.0,0 STARLINK-3826,1 52347U 22045S   22160.91667824 -.00721941  00000-0 -59758-2 0  9990,2 52347  53.2175 233.2122 0002119  18.9146 243.3044 15.71662083  1306,6732.283,91.623,355.575,352.722,0.0
52347.0,STARLINK-3826,PAYLOAD,2022-06-10 08:00:01,15.71022334,0.0002562,53.2176,231.1534,15.1715,85.4115,-0.0061014,-0.00717857,0.0,0 STARLINK-3826,1 52347U 22045S   22161.33334491 -.00717857  00000-0 -61014-2 0  9997,2 52347  53.2176 231.1534 0002562  15.1715  85.4115 15.71022334  9079,6734.111,91.66,357.701,354.251,0.0
52347.0,STARLINK-3826,PAYLOAD,2022-06-10 14:00:01,15.70646639,0.0003012,53.2176,229.9203,330.3791,104.7592,-0.0063059,-0.00729362,0.0,0 STARLINK-3826,1 52347U 22045S   22161.58334491 -.00729362  00000-0 -63059-2 0  9999,2 52347  53.2176 229.9203 0003012 330.3791 104.7592 15.70646639  1305,6735.185,91.682,359.07800000000015,355.021,0.0
52347.0,STARLINK-3826,PAYLOAD,2022-06-10 22:00:00,15.70133522,0.0005289,53.2174,228.2739,302.0334,218.6494,-0.0063967,-0.00725241,0.0,0 STARLINK-3826,1 52347U 22045S   22161.91667824 -.00725241  00000-0 -63967-2 0  9995,2 52347  53.2174 228.2739 0005289 302.0334 218.6494 15.70133522  1304,6736.651999999999,91.712,362.08,354.954,0.0
52347.0,STARLINK-3826,PAYLOAD,2022-06-11 14:00:01,15.69101955,0.0003384,53.2175,224.99,273.8867,56.0438,-0.0064609,-0.00702851,0.0,0 STARLINK-3826,1 52347U 22045S   22162.58334491 -.00702851  00000-0 -64609-2 0  9996,2 52347  53.2175 224.9900 0003384 273.8867  56.0438 15.69101955  9266,6739.604,91.772,363.75,359.189,0.0
52347.0,STARLINK-3826,PAYLOAD,2022-06-11 22:00:00,15.68603993,0.0001675,53.2176,223.3472,275.3614,138.2696,-0.0068098999999999,-0.00723384,0.0,0 STARLINK-3826,1 52347U 22045S   22162.91667824 -.00723384  00000-0 -68099-2 0  9993,2 52347  53.2176 223.3472 0001675 275.3614 138.2696 15.68603993  1306,6741.031,91.801,364.025,361.766,0.0
52347.0,STARLINK-3826,PAYLOAD,2022-06-12 06:00:02,15.6809374,8.66e-05,53.2177,221.7074,39.5153,97.2723,-0.0069539,-0.00723116,0.0,0 STARLINK-3826,1 52347U 22045S   22163.25002315 -.00723116  00000-0 -69539-2 0  9992,2 52347  53.2177 221.7074 0000866  39.5153  97.2723 15.68093740  9379,6742.493,91.831,364.942,363.774,0.0
52347.0,STARLINK-3826,PAYLOAD,2022-06-12 14:00:01,15.67577056,0.0001361,53.2176,220.0707,55.8546,163.3465,-0.0069785,-0.00711537,0.0,0 STARLINK-3826,1 52347U 22045S   22163.58334491 -.00711537  00000-0 -69785-2 0  9998,2 52347  53.2176 220.0707 0001361  55.8546 163.3465 15.67577056  1300,6743.974,91.862,366.757,364.921,0.0
52347.0,STARLINK-3826,PAYLOAD,2022-06-12 22:00:00,15.67071205,0.000109,53.2175,218.4316,78.6034,222.4626,-0.007204,-0.00718779,0.0,0 STARLINK-3826,1 52347U 22045S   22163.91667824 -.00718779  00000-0 -72040-2 0  9997,2 52347  53.2175 218.4316 0001090  78.6034 222.4626 15.67071205  1301,6745.426,91.891,368.026,366.555,0.0
52347.0,STARLINK-3826,PAYLOAD,2022-06-13 14:00:01,15.66046224,0.0001163,53.2173,215.1628,61.8115,41.1469,-0.0074091,-0.00709863,0.0,0 STARLINK-3826,1 52347U 22045S   22164.58334491 -.00709863  00000-0 -74091-2 0  9994,2 52347  53.2173 215.1628 0001163  61.8115  41.1469 15.66046224  9585,6748.369000000002,91.951,371.018,369.449,0.0
52347.0,STARLINK-3826,PAYLOAD,2022-06-13 22:00:00,15.65539207,0.0001184,53.2175,213.5272,73.9122,109.0731,-0.007618,-0.00714664,0.0,0 STARLINK-3826,1 52347U 22045S   22164.91667824 -.00714664  00000-0 -76180-2 0  9996,2 52347  53.2175 213.5272 0001184  73.9122 109.0731 15.65539207  1304,6749.825,91.981,372.49,370.891,0.0
52347.0,STARLINK-3826,PAYLOAD,2022-06-14 14:00:01,15.64518828,0.0001122,53.2175,210.2659,63.7909,277.4083,-0.0079189,-0.00713203,0.0,0 STARLINK-3826,1 52347U 22045S   22165.58334491 -.00713203  00000-0 -79189-2 0  9991,2 52347  53.2175 210.2659 0001122  63.7909 277.4083 15.64518828  9739,6752.76,92.041,375.383,373.867,0.0
52347.0,STARLINK-3826,PAYLOAD,2022-06-14 22:00:00,15.64008951,0.0001115,53.2176,208.6341,58.8456,0.5435,-0.0080924,-0.00714083,0.0,0 STARLINK-3826,1 52347U 22045S   22165.91667824 -.00714083  00000-0 -80924-2 0  9993,2 52347  53.2176 208.6341 0001115  58.8456   0.5435 15.64008951  1305,6754.228,92.071,376.846,375.339,0.0
52347.0,STARLINK-3826,PAYLOAD,2022-06-15 14:00:01,15.62986832,0.0001222,53.2172,205.3801,74.6456,139.2812,-0.0083658999999999,-0.00709361,0.0,0 STARLINK-3826,1 52347U 22045S   22166.58334491 -.00709361  00000-0 -83659-2 0  9999,2 52347  53.2172 205.3801 0001222  74.6456 139.2812 15.62986832  9893,6757.172,92.131,379.86300000000006,378.211,0.0
52347.0,STARLINK-3826,PAYLOAD,2022-06-15 22:00:00,15.62479038,0.0001200999999999,53.2174,203.752,63.3831,226.8944,-0.0085917,-0.007137,0.0,0 STARLINK-3826,1 52347U 22045S   22166.91667824 -.00713700  00000-0 -85917-2 0  9996,2 52347  53.2174 203.7520 0001201  63.3831 226.8944 15.62479038  1306,6758.636,92.161,381.312,379.689,0.0
52347.0,STARLINK-3826,PAYLOAD,2022-06-16 02:00:01,15.6222527,0.000131,53.2173,202.9391,63.3377,84.8843,-0.008693,-0.00714878,0.0,0 STARLINK-3826,1 52347U 22045S   22167.08334491 -.00714878  00000-0 -86930-2 0  9999,2 52347  53.2173 202.9391 0001310  63.3377  84.8843 15.62225270  1305,6759.368,92.176,382.11800000000005,380.347,0.0
52347.0,STARLINK-3826,PAYLOAD,2022-06-19 14:00:01,15.56871115,0.0001068,53.2172,185.9482,67.4775,302.204,-0.010663,-0.00714096,0.0,0 STARLINK-3826,1 52347U 22045S   22170.58334491 -.00714096  00000-0 -10663-1 0  9999,2 52347  53.2172 185.9482 0001068  67.4775 302.2040 15.56871115  1306,6774.856,92.493,397.445,395.997,0.0
52347.0,STARLINK-3826,PAYLOAD,2022-06-19 20:00:01,15.56487211,0.0001164,53.2175,184.738,61.6955,269.7928,-0.010803,-0.00713231,0.0,0 STARLINK-3826,1 52347U 22045S   22170.83334491 -.00713231  00000-0 -10803-1 0  9993,2 52347  53.2175 184.7380 0001164  61.6955 269.7928 15.56487211 10566,6775.97,92.516,398.624,397.046,0.0
52347.0,STARLINK-3826,PAYLOAD,2022-06-19 22:00:00,15.56359621,0.0001221,53.2173,184.335,54.3341,24.3462,-0.01086,-0.0071356,0.0,0 STARLINK-3826,1 52347U 22045S   22170.91667824 -.00713560  00000-0 -10860-1 0  9999,2 52347  53.2173 184.3350 0001221  54.3341  24.3462 15.56359621  1302,6776.34,92.524,399.033,397.378,0.0
52347.0,STARLINK-3826,PAYLOAD,2022-06-20 14:00:01,15.55342034,0.0001299,53.2171,181.1177,68.4193,146.4137,-0.01133,-0.00716499,0.0,0 STARLINK-3826,1 52347U 22045S   22171.58334491 -.00716499  00000-0 -11330-1 0  9991,2 52347  53.2171 181.1177 0001299  68.4193 146.4137 15.55342034  1302,6779.295999999999,92.584,402.041,400.28,0.0
